#aV2014  6 15  0  0  0.00000000     288 DD+AD WGS84 FIT  NGA
## 1797      0.00000000   300.00000000 56823 0.0000000000000
+   31     1  2  3  4  5  6  7  8 10 11 12 13 14 15 16 17 18
+         19 20 21 22 23 24 25 26 27 28 29 30 31 32  0  0  0
+          0  0  0  0  0  0  0  0  0  0  0  0  0  0  0  0  0
+          0  0  0  0  0  0  0  0  0  0  0  0  0  0  0  0  0
+          0  0  0  0  0  0  0  0  0  0  0  0  0  0  0  0  0
++         2  2  2  2  2  2  2  2  2  2  2  2  2  2  2  2  2
++         2  2  2  2  2  2  2  2  2  2  2  2  2  2  2  0  0
++         0  0  0  0  0  0  0  0  0  0  0  0  0  0  0  0  0
++         0  0  0  0  0  0  0  0  0  0  0  0  0  0  0  0  0
++         0  0  0  0  0  0  0  0  0  0  0  0  0  0  0  0  0
%c cc cc ccc ccc cccc cccc cccc cccc ccccc ccccc ccccc ccccc
%c cc cc ccc ccc cccc cccc cccc cccc ccccc ccccc ccccc ccccc
%f  0.0000000  0.000000000  0.00000000000  0.000000000000000
%f  0.0000000  0.000000000  0.00000000000  0.000000000000000
%i    0    0    0    0      0      0      0      0         0
%i    0    0    0    0      0      0      0      0         0
/*      NGA, ST. LOUIS,MO.                                  
/*   EPHEMERIS COMPUTED FROM  1 DAYS OF DATA                
/*   EPOCHA SMOOTHER                                       
/* CCCCCCCCCCCCCCCCCCCCCCCCCCCCCCCCCCCCCCCCCCCCCCCCCCCCCCCCC
*  2014  6 15 10  0  0.00000000
P  1 -13274.388398  13339.043707  18654.333458     15.313289                    
V  1  -1120.396959 -23826.749100  16353.502405      0.010188                    
P  2  13765.318433  12877.680018 -18596.898036    501.228032                    
V  2  -1218.550936  24159.384746  15093.755001      0.021636                    
P  3 -25225.998226  -5362.665036   6113.896604    378.208565                    
V  3  -6599.241736  -6263.221675 -29865.482542      0.048140                    
P  4   7288.889477  23442.192384 -10053.638483      7.260501                    
V  4  -3312.736341  12468.689901  27761.977101      0.001489                    
P  5  20866.863181   1806.576625 -16462.605279   -365.587341                    
V  5 -17129.247095  11993.088821 -20274.342132      0.028110                    
P  6   8108.928475  22336.725223 -11881.791083      6.965006                    
V  6  -2492.862238  15052.024970  26599.962541     -0.020258                    
P  7  -6620.064870  24081.282107  -8442.216767    357.862942                    
V  7  -2128.532882 -10988.009047 -29756.725978      0.042490                    
P  8  -3449.889628  25987.960880    164.716053     14.169275                    
V  8  -2182.713817   -278.617922 -32948.203185      0.002477                    
P 10   6672.308235  14327.282255 -21675.065644   -129.809128                    
V 10 -23708.302238  12523.978715   1420.107953     -0.014840                    
P 11 -15490.052992   5586.270670  20345.459409   -497.460262                    
V 11  -8488.467970 -25939.277257    847.573983     -0.031310                    
P 12  23999.172984 -10945.780308   1716.179960    211.683336                    
V 12  -1053.559905   2948.684747  32388.965092      0.024993                    
P 13  -8505.805832  12242.726150 -22107.723951    -10.679288                    
V 13 -22250.980333 -16517.551622   -753.754681     -0.038559                    
P 14  -9601.262355 -19625.334734  15432.601674    163.427222                    
V 14  16594.073110   9627.452039  22749.846229     -0.034951                    
P 15  22734.368851    745.258787  13893.091679   -185.410840                    
V 15  14317.943826  10678.002314 -23613.991221     -0.021781                    
P 16 -20669.237908  -2256.869224 -16790.067448   -213.018631                    
V 16  18447.024306 -10120.769778 -21066.495394      0.020959                    
P 17  10484.642206  19371.856142  15261.040432   -101.457039                    
V 17 -16629.300677  -8940.791322  22947.457941     -0.029416                    
P 18  11026.363442 -19220.869039  14858.906992    325.567191                    
V 18  17342.209315  -6582.892272 -22402.242357      0.023804                    
P 19 -22746.499251  -5674.252077  12761.410558   -462.806330                    
V 19 -12037.702782 -11086.542899 -25645.763017     -0.021201                    
P 20 -22097.790351  14669.984939   -432.959293    200.216625                    
V 20  -2430.957123  -3140.337497  31008.506931      0.040357                    
P 21   3121.344717 -25709.018035  -4045.648366   -367.113474                    
V 21   4093.463962   6029.927530 -30823.428124     -0.021900                    
P 22  -2342.878865 -16699.981598  20708.068171    242.364231                    
V 22  23061.972746 -12029.671225  -7332.332244      0.030203                    
P 23 -18235.224555   4601.570878 -18807.421320    -28.865693                    
V 23 -19826.689737 -13580.328802  15386.761318     -0.030239                    
P 24  14453.135081  -8670.258243  20483.024705    -30.184938                    
V 24    988.344135  26098.666538  10430.318122     -0.007366                    
P 25  17663.479200 -17344.729074  -9511.248013     24.828214                    
V 25  11519.276635  -3985.574873  29019.791967      0.001682                    
P 26  22780.698662  12956.051943   4513.622635     46.019658                    
V 26   3958.742523   5598.643353 -31204.323508     -0.122124                    
P 27 -23509.587052 -12268.428628   2006.419220     -9.935338                    
V 27   -846.865543  -3584.939971 -31650.673109      0.029384                    
P 28  -2984.016669  16776.224670  20942.577811    362.444046                    
V 28 -23019.265102  10272.833606 -11983.395565      0.026939                    
P 29   8486.655364 -12366.110391 -21884.570545    539.849149                    
V 29  23141.818031  15483.858145    270.497067      0.026677                    
P 30  -1198.269139  26458.988675   1702.449892    -27.106949                    
V 30  -3092.536051   1905.168269 -31635.828503     -0.067472                    
P 31  -7975.504831 -21374.955158 -13179.779558    334.005875                    
V 31   2793.672904 -16972.157860  25841.628453     -0.001579                    
P 32 -24079.441279   2853.892927  10230.656647   -406.478583                    
V 32  10599.794418  -8393.982397  27970.478598      0.082769                    
EOF
